{
    "links": {
        "self": "http://www.neowsapp.com/rest/v1/neo/3323937?api_key=iIulBulltgU6a56xZRHN4H3l9WmuAYTsLGpBGhQ2"
    },
    "id": "3323937",
    "neo_reference_id": "3323937",
    "name": "(2006 DA1)",
    "designation": "2006 DA1",
    "nasa_jpl_url": "http://ssd.jpl.nasa.gov/sbdb.cgi?sstr=3323937",
    "absolute_magnitude_h": 24.8,
    "estimated_diameter": {
        "kilometers": {
            "estimated_diameter_min": 0.0291443905,
            "estimated_diameter_max": 0.0651688382
        },
        "meters": {
            "estimated_diameter_min": 29.1443904535,
            "estimated_diameter_max": 65.1688382168
        },
        "miles": {
            "estimated_diameter_min": 0.018109479,
            "estimated_diameter_max": 0.0404940262
        },
        "feet": {
            "estimated_diameter_min": 95.6180819754,
            "estimated_diameter_max": 213.8085311752
        }
    },
    "is_potentially_hazardous_asteroid": false,
    "close_approach_data": [
        {
            "close_approach_date": "2004-03-07",
            "close_approach_date_full": "2004-Mar-07 07:13",
            "epoch_date_close_approach": 1078643580000,
            "relative_velocity": {
                "kilometers_per_second": "15.7568554677",
                "kilometers_per_hour": "56724.6796838845",
                "miles_per_hour": "35246.5099958004"
            },
            "miss_distance": {
                "astronomical": "0.209323277",
                "lunar": "81.426754753",
                "kilometers": "31314316.38061999",
                "miles": "19457813.928096262"
            },
            "orbiting_body": "Earth"
        },
        {
            "close_approach_date": "2006-02-24",
            "close_approach_date_full": "2006-Feb-24 11:16",
            "epoch_date_close_approach": 1140779760000,
            "relative_velocity": {
                "kilometers_per_second": "19.2277392695",
                "kilometers_per_hour": "69219.8613701615",
                "miles_per_hour": "43010.5299719206"
            },
            "miss_distance": {
                "astronomical": "0.0242828713",
                "lunar": "9.4460369357",
                "kilometers": "3632665.823964131",
                "miles": "2257233.8736857678"
            },
            "orbiting_body": "Earth"
        },
        {
            "close_approach_date": "2008-02-14",
            "close_approach_date_full": "2008-Feb-14 23:15",
            "epoch_date_close_approach": 1203030900000,
            "relative_velocity": {
                "kilometers_per_second": "23.9017665871",
                "kilometers_per_hour": "86046.3597136957",
                "miles_per_hour": "53465.8616787683"
            },
            "miss_distance": {
                "astronomical": "0.2179414725",
                "lunar": "84.7792328025",
                "kilometers": "32603580.070663575",
                "miles": "20258925.237064335"
            },
            "orbiting_body": "Earth"
        }
    ],
    "orbital_data": {
        "orbit_id": "6",
        "orbit_determination_date": "2017-04-06 09:09:04",
        "first_observation_date": "2006-02-21",
        "last_observation_date": "2006-02-22",
        "data_arc_in_days": 1,
        "observations_used": 29,
        "orbit_uncertainty": "8",
        "minimum_orbit_intersection": ".0241154",
        "jupiter_tisserand_invariant": "4.173",
        "epoch_osculation": "2453788.5",
        "eccentricity": ".4838218654422618",
        "semi_major_axis": "1.570038153018011",
        "inclination": "26.65186288625148",
        "ascending_node_longitude": "333.9382710219926",
        "orbital_period": "718.5611556082731",
        "perihelion_distance": ".8104193650093139",
        "perihelion_argument": "248.5110884127088",
        "aphelion_distance": "2.329656941026709",
        "perihelion_time": "2453838.102081844968",
        "mean_anomaly": "335.1492975582955",
        "mean_motion": ".5010011982838878",
        "equinox": "J2000",
        "orbit_class": {
            "orbit_class_type": "APO",
            "orbit_class_description": "Near-Earth asteroid orbits which cross the Earth’s orbit similar to that of 1862 Apollo",
            "orbit_class_range": "a (semi-major axis) > 1.0 AU; q (perihelion) < 1.017 AU"
        }
    },
    "is_sentry_object": false
}